{
  "norad_id": 52122,
  "name": "STARLINK-3726",
  "history": [
    {
      "epoch": "2026-03-28T22:21:36.059904Z",
      "apogee_km": 540.7790487994516,
      "perigee_km": 538.6870848912376,
      "latitude_deg": -3.31636509475999e-05,
      "longitude_deg": -169.00420344854345,
      "height_km": 540.6336748593093,
      "semi_major_axis_km": 6917.870066845345,
      "eccentricity": 0.0001512,
      "inclination_deg": 53.2187,
      "raan_deg": 352.7411,
      "arg_perigee_deg": 90.2722,
      "mean_anomaly_deg": 269.8443,
      "mean_motion_rev_day": 15.08843377
    },
    {
      "epoch": "2026-03-28T23:56:59.157024Z",
      "apogee_km": 540.7618567972968,
      "perigee_km": 538.7017154727864,
      "latitude_deg": -6.180789762911753e-05,
      "longitude_deg": 166.78684854881516,
      "height_km": 540.6376430295463,
      "semi_major_axis_km": 6917.868786135042,
      "eccentricity": 0.0001489,
      "inclination_deg": 53.2184,
      "raan_deg": 352.4437,
      "arg_perigee_deg": 90.5681,
      "mean_anomaly_deg": 269.5481,
      "mean_motion_rev_day": 15.08843796
    },
    {
      "epoch": "2026-03-30T02:58:32.290176Z",
      "apogee_km": 540.789431715044,
      "perigee_km": 538.6644022770215,
      "latitude_deg": 1.3286934095797418e-05,
      "longitude_deg": 115.2334371767048,
      "height_km": 540.6886272121354,
      "semi_major_axis_km": 6917.8639169960325,
      "eccentricity": 0.00015359,
      "inclination_deg": 53.2192,
      "raan_deg": 347.3882,
      "arg_perigee_deg": 93.5643,
      "mean_anomaly_deg": 266.5525,
      "mean_motion_rev_day": 15.08845389
    },
    {
      "epoch": "2026-03-30T20:27:47.590560Z",
      "apogee_km": 540.8717269759882,
      "perigee_km": 538.637248025525,
      "latitude_deg": -4.026414790039907e-05,
      "longitude_deg": -151.07074292740307,
      "height_km": 540.8035256530171,
      "semi_major_axis_km": 6917.891487500757,
      "eccentricity": 0.0001615,
      "inclination_deg": 53.2189,
      "raan_deg": 344.116,
      "arg_perigee_deg": 97.8973,
      "mean_anomaly_deg": 262.2202,
      "mean_motion_rev_day": 15.08836369
    },
    {
      "epoch": "2026-03-31T02:49:20.097408Z",
      "apogee_km": 540.7765164880793,
      "perigee_km": 538.7288211461082,
      "latitude_deg": 2.1494307755609162e-05,
      "longitude_deg": 112.09520205469258,
      "height_km": 540.6656773037522,
      "semi_major_axis_km": 6917.8896688170935,
      "eccentricity": 0.000148,
      "inclination_deg": 53.2195,
      "raan_deg": 342.9285,
      "arg_perigee_deg": 90.9654,
      "mean_anomaly_deg": 269.1508,
      "mean_motion_rev_day": 15.08836964
    },
    {
      "epoch": "2026-03-31T23:29:20.607936Z",
      "apogee_km": 540.7259855412585,
      "perigee_km": 538.7572956377189,
      "latitude_deg": -1.5150772775164247e-05,
      "longitude_deg": 157.37929315419635,
      "height_km": 540.6227972667441,
      "semi_major_axis_km": 6917.878640589488,
      "eccentricity": 0.00014229,
      "inclination_deg": 53.2194,
      "raan_deg": 339.0635,
      "arg_perigee_deg": 89.1456,
      "mean_anomaly_deg": 270.9699,
      "mean_motion_rev_day": 15.08840572
    },
    {
      "epoch": "2026-04-02T08:52:26.756832Z",
      "apogee_km": 540.7545149318303,
      "perigee_km": 538.7426554459453,
      "latitude_deg": -4.79360230349701e-05,
      "longitude_deg": 8.987974970498303,
      "height_km": 540.598436652057,
      "semi_major_axis_km": 6917.8855851888875,
      "eccentricity": 0.00014541,
      "inclination_deg": 53.2191,
      "raan_deg": 332.8189,
      "arg_perigee_deg": 87.3839,
      "mean_anomaly_deg": 272.7319,
      "mean_motion_rev_day": 15.088383
    },
    {
      "epoch": "2026-04-02T21:35:31.785216Z",
      "apogee_km": 540.6760861258717,
      "perigee_km": 538.8082587493136,
      "latitude_deg": 1.1893391353711124e-05,
      "longitude_deg": 175.31485591641308,
      "height_km": 540.4900364863167,
      "semi_major_axis_km": 6917.879172437592,
      "eccentricity": 0.000135,
      "inclination_deg": 53.2186,
      "raan_deg": 330.439,
      "arg_perigee_deg": 80.8812,
      "mean_anomaly_deg": 279.2333,
      "mean_motion_rev_day": 15.08840398
    },
    {
      "epoch": "2026-04-03T16:40:10.258752Z",
      "apogee_km": 540.6731679409577,
      "perigee_km": 538.8689775155899,
      "latitude_deg": -3.241255466874953e-05,
      "longitude_deg": -115.19606248583601,
      "height_km": 540.625444780469,
      "semi_major_axis_km": 6917.9080727282735,
      "eccentricity": 0.0001304,
      "inclination_deg": 53.2187,
      "raan_deg": 326.8719,
      "arg_perigee_deg": 87.3598,
      "mean_anomaly_deg": 272.7543,
      "mean_motion_rev_day": 15.08830943
    },
    {
      "epoch": "2026-04-04T05:23:14.788608Z",
      "apogee_km": 540.6628330079748,
      "perigee_km": 538.8199102097769,
      "latitude_deg": -1.2927228995232646e-05,
      "longitude_deg": 51.133470746012954,
      "height_km": 540.5558207160169,
      "semi_major_axis_km": 6917.878371608876,
      "eccentricity": 0.0001332,
      "inclination_deg": 53.2182,
      "raan_deg": 324.4926,
      "arg_perigee_deg": 84.9325,
      "mean_anomaly_deg": 275.1819,
      "mean_motion_rev_day": 15.0884066
    },
    {
      "epoch": "2026-04-05T14:46:20.716320Z",
      "apogee_km": 540.6700347410579,
      "perigee_km": 538.8177029596154,
      "latitude_deg": 7.498293856309424e-07,
      "longitude_deg": -97.25709213098142,
      "height_km": 540.4730485219637,
      "semi_major_axis_km": 6917.880868850337,
      "eccentricity": 0.00013388,
      "inclination_deg": 53.2163,
      "raan_deg": 318.2478,
      "arg_perigee_deg": 79.6452,
      "mean_anomaly_deg": 280.4691,
      "mean_motion_rev_day": 15.08839843
    },
    {
      "epoch": "2026-04-05T21:07:53.198112Z",
      "apogee_km": 540.7018277951856,
      "perigee_km": 538.756523826547,
      "latitude_deg": -1.0831188376852212e-05,
      "longitude_deg": 165.9078022000042,
      "height_km": 540.5127870977004,
      "semi_major_axis_km": 6917.8661758108665,
      "eccentricity": 0.0001406,
      "inclination_deg": 53.2162,
      "raan_deg": 317.0592,
      "arg_perigee_deg": 83.3924,
      "mean_anomaly_deg": 276.7228,
      "mean_motion_rev_day": 15.0884465
    },
    {
      "epoch": "2026-04-06T00:18:39.426912Z",
      "apogee_km": 540.6878579835065,
      "perigee_km": 538.7583284463071,
      "latitude_deg": 9.872830294239266e-06,
      "longitude_deg": 117.48981959464794,
      "height_km": 540.5096808957788,
      "semi_major_axis_km": 6917.860093214907,
      "eccentricity": 0.00013946,
      "inclination_deg": 53.2162,
      "raan_deg": 316.4644,
      "arg_perigee_deg": 83.5153,
      "mean_anomaly_deg": 276.5998,
      "mean_motion_rev_day": 15.0884664
    },
    {
      "epoch": "2026-04-07T14:27:54.850752Z",
      "apogee_km": 540.7199213652884,
      "perigee_km": 538.7647903017423,
      "latitude_deg": 1.2609664072000342e-05,
      "longitude_deg": -103.52888936832204,
      "height_km": 540.5902829819286,
      "semi_major_axis_km": 6917.879355833515,
      "eccentricity": 0.00014131,
      "inclination_deg": 53.2164,
      "raan_deg": 309.3269,
      "arg_perigee_deg": 87.209,
      "mean_anomaly_deg": 272.9064,
      "mean_motion_rev_day": 15.08840338
    },
    {
      "epoch": "2026-04-07T20:49:27.350688Z",
      "apogee_km": 540.7267076648432,
      "perigee_km": 538.7551124604761,
      "latitude_deg": 4.798973457762684e-05,
      "longitude_deg": 159.63506377112023,
      "height_km": 540.6277074689514,
      "semi_major_axis_km": 6917.87791006266,
      "eccentricity": 0.0001425,
      "inclination_deg": 53.2165,
      "raan_deg": 308.1374,
      "arg_perigee_deg": 89.4934,
      "mean_anomaly_deg": 270.6222,
      "mean_motion_rev_day": 15.08840811
    },
    {
      "epoch": "2026-04-08T14:18:42.430752Z",
      "apogee_km": 540.7315871376668,
      "perigee_km": 538.79512846951,
      "latitude_deg": 4.160974479179858e-05,
      "longitude_deg": -106.66646382186623,
      "height_km": 540.6783803302662,
      "semi_major_axis_km": 6917.900357803588,
      "eccentricity": 0.00013996,
      "inclination_deg": 53.2174,
      "raan_deg": 304.8669,
      "arg_perigee_deg": 91.1469,
      "mean_anomaly_deg": 268.9684,
      "mean_motion_rev_day": 15.08833467
    },
    {
      "epoch": "2026-04-09T18:55:38.744832Z",
      "apogee_km": 540.6724753745311,
      "perigee_km": 538.8240164368244,
      "latitude_deg": -1.5589759762863513e-05,
      "longitude_deg": 177.5712454177972,
      "height_km": 540.6638628490432,
      "semi_major_axis_km": 6917.885245905677,
      "eccentricity": 0.0001336,
      "inclination_deg": 53.2173,
      "raan_deg": 299.5145,
      "arg_perigee_deg": 91.2329,
      "mean_anomaly_deg": 268.8816,
      "mean_motion_rev_day": 15.08838411
    },
    {
      "epoch": "2026-04-10T12:24:53.366976Z",
      "apogee_km": 540.6676570984164,
      "perigee_km": 538.838566952797,
      "latitude_deg": -4.7478464538052775e-05,
      "longitude_deg": -88.7287875360087,
      "height_km": 540.667942962471,
      "semi_major_axis_km": 6917.890112025607,
      "eccentricity": 0.0001322,
      "inclination_deg": 53.2172,
      "raan_deg": 296.2436,
      "arg_perigee_deg": 91.1959,
      "mean_anomaly_deg": 268.9184,
      "mean_motion_rev_day": 15.08836819
    },
    {
      "epoch": "2026-04-11T20:12:35.989344Z",
      "apogee_km": 540.658885853476,
      "perigee_km": 538.8214976713425,
      "latitude_deg": 5.738243205090339e-05,
      "longitude_deg": 147.09071341644068,
      "height_km": 540.6551278155132,
      "semi_major_axis_km": 6917.877191762409,
      "eccentricity": 0.0001328,
      "inclination_deg": 53.2179,
      "raan_deg": 290.2964,
      "arg_perigee_deg": 91.1938,
      "mean_anomaly_deg": 268.9207,
      "mean_motion_rev_day": 15.08841046
    }
  ]
}